ORBCOMM FM103 [+]       
1 40091U 14040F   23281.47295382  .00001866  00000+0  45806-3 0  9995
2 40091  47.0073  49.6062 0002204 308.1555  51.9131 14.55946559474029
ORBCOMM FM114 [+]       
1 41179U 15081A   23281.43975013  .00001891  00000+0  46356-3 0  9990
2 41179  47.0033 319.1243 0001553 350.4834   9.6021 14.55959054414380
ORBCOMM FM119 [-]       
1 41180U 15081B   23281.54415618  .00001906  00000+0  46708-3 0  9992
2 41180  47.0007 227.8252 0000647  90.2700 269.8259 14.55943006415656
ORBCOMM FM105 [-]       
1 41181U 15081C   23281.10970051  .00000791  00000+0  27467-3 0  9994
2 41181  47.0012 177.3322 0001406  56.9925 303.1089 14.44041767411382
ORBCOMM FM110 [+]       
1 41182U 15081D   23281.55400870  .00002151  00000+0  52222-3 0  9990
2 41182  47.0016 318.0142 0002675 243.8442 116.2168 14.55957718414277
ORBCOMM FM118 [+]       
1 41183U 15081E   23281.59995209  .00002051  00000+0  49928-3 0  9998
2 41183  47.0039 318.0611 0002984 239.8422 120.2167 14.55989087414469
ORBCOMM FM112 [+]       
1 41184U 15081F   23281.59101340  .00002323  00000+0  56086-3 0  9999
2 41184  46.9976 226.8656 0000957  41.6901 318.4057 14.55958952415650
ORBCOMM FM113 [+]       
1 41185U 15081G   23281.56705857  .00001785  00000+0  43973-3 0  9992
2 41185  47.0008 227.1964 0000441  53.0962 306.9963 14.55949077415585
